start=new Date('2023-06-04T00:00:00.000Z').valueOf();
sats=[{"RA_OF_ASC_NODE":"110.4736","OBJECT_NAME":"STARLINK-5620","SEMIMAJOR_AXIS":"6947.191","INCLINATION":"69.9990","ECCENTRICITY":"0.00027630","ELEMENT_SET_NO":"999","COUNTRY_CODE":"US","EPOCH":"2023-06-03T20:57:50.764608","PERIAPSIS":"567.136","TLE_LINE1":"1 55414U 23014Z   23154.87350422  .00000134  00000-0  18602-4 0  9994","TLE_LINE2":"2 55414  69.9990 110.4736 0002763 265.9623  94.1221 14.99301350 20305","MEAN_MOTION_DOT":"0.00000134","REV_AT_EPOCH":"2030","SITE":"AFWTR","TIME_SYSTEM":"UTC","LAUNCH_DATE":"2023-01-31","MEAN_MOTION_DDOT":"0.0000000000000","CENTER_NAME":"EARTH","ARG_OF_PERICENTER":"265.9623","CLASSIFICATION_TYPE":"U","MEAN_ELEMENT_THEORY":"SGP4","RCS_SIZE":"LARGE","OBJECT_TYPE":"PAYLOAD","FILE":"3924324","MEAN_MOTION":"14.99301350","DECAY_DATE":null,"REF_FRAME":"TEME","PERIOD":"96.045","GP_ID":"233146677","MEAN_ANOMALY":"94.1221","NORAD_CAT_ID":"55414","EPHEMERIS_TYPE":"0","OBJECT_ID":"2023-014Z","BSTAR":"0.00001860200000","APOAPSIS":"570.975"},{"SEMIMAJOR_AXIS":"6947.196","OBJECT_NAME":"STARLINK-5618","RA_OF_ASC_NODE":"110.4185","COUNTRY_CODE":"US","ELEMENT_SET_NO":"999","ECCENTRICITY":"0.00030600","INCLINATION":"69.9989","TLE_LINE2":"2 55415  69.9989 110.4185 0003060 268.5410  91.5399 14.99299755 20308","TLE_LINE1":"1 55415U 23014AA  23154.85734442  .00000291  00000-0  31491-4 0  9996","PERIAPSIS":"566.935","EPOCH":"2023-06-03T20:34:34.557888","REV_AT_EPOCH":"2030","SITE":"AFWTR","MEAN_MOTION_DOT":"0.00000291","CENTER_NAME":"EARTH","MEAN_MOTION_DDOT":"0.0000000000000","LAUNCH_DATE":"2023-01-31","TIME_SYSTEM":"UTC","ARG_OF_PERICENTER":"268.5410","CLASSIFICATION_TYPE":"U","MEAN_ELEMENT_THEORY":"SGP4","RCS_SIZE":"LARGE","FILE":"3924324","OBJECT_TYPE":"PAYLOAD","GP_ID":"233145425","PERIOD":"96.045","REF_FRAME":"TEME","DECAY_DATE":null,"MEAN_MOTION":"14.99299755","BSTAR":"0.00003149100000","OBJECT_ID":"2023-014AA","EPHEMERIS_TYPE":"0","NORAD_CAT_ID":"55415","MEAN_ANOMALY":"91.5399","APOAPSIS":"571.186"},{"APOAPSIS":"571.041","OBJECT_ID":"2023-014AB","BSTAR":"-0.00006793200000","EPHEMERIS_TYPE":"0","NORAD_CAT_ID":"55416","MEAN_ANOMALY":"93.4407","GP_ID":"233113620","REF_FRAME":"TEME","PERIOD":"96.044","DECAY_DATE":null,"MEAN_MOTION":"14.99315357","FILE":"3924076","OBJECT_TYPE":"PAYLOAD","RCS_SIZE":"LARGE","MEAN_ELEMENT_THEORY":"SGP4","CLASSIFICATION_TYPE":"U","ARG_OF_PERICENTER":"266.6418","MEAN_MOTION_DDOT":"0.0000000000000","CENTER_NAME":"EARTH","LAUNCH_DATE":"2023-01-31","TIME_SYSTEM":"UTC","SITE":"AFWTR","REV_AT_EPOCH":"2021","MEAN_MOTION_DOT":"-0.00000925","TLE_LINE2":"2 55416  69.9990 112.0232 0002920 266.6418  93.4407 14.99315357 20211","TLE_LINE1":"1 55416U 23014AB  23154.28312038 -.00000925  00000-0 -67932-4 0  9992","PERIAPSIS":"566.984","EPOCH":"2023-06-03T06:47:41.600832","COUNTRY_CODE":"US","ELEMENT_SET_NO":"999","ECCENTRICITY":"0.00029200","INCLINATION":"69.9990","SEMIMAJOR_AXIS":"6947.147","OBJECT_NAME":"STARLINK-5624","RA_OF_ASC_NODE":"112.0232"},{"MEAN_MOTION_DOT":"-0.00000448","SITE":"AFWTR","REV_AT_EPOCH":"2022","LAUNCH_DATE":"2023-01-31","TIME_SYSTEM":"UTC","CENTER_NAME":"EARTH","MEAN_MOTION_DDOT":"0.0000000000000","INCLINATION":"69.9992","ECCENTRICITY":"0.00028890","ELEMENT_SET_NO":"999","COUNTRY_CODE":"US","PERIAPSIS":"567.028","EPOCH":"2023-06-03T08:03:57.756096","TLE_LINE1":"1 55417U 23014AC  23154.33608514 -.00000448  00000-0 -28935-4 0  9996","TLE_LINE2":"2 55417  69.9992 111.8104 0002889 265.6831  94.3998 14.99308024 20220","RA_OF_ASC_NODE":"111.8104","OBJECT_NAME":"STARLINK-5616","SEMIMAJOR_AXIS":"6947.170","MEAN_ANOMALY":"94.3998","NORAD_CAT_ID":"55417","EPHEMERIS_TYPE":"0","BSTAR":"-0.00002893500000","OBJECT_ID":"2023-014AC","APOAPSIS":"571.042","FILE":"3924076","OBJECT_TYPE":"PAYLOAD","DECAY_DATE":null,"MEAN_MOTION":"14.99308024","PERIOD":"96.044","REF_FRAME":"TEME","GP_ID":"233114370","MEAN_ELEMENT_THEORY":"SGP4","RCS_SIZE":"LARGE","ARG_OF_PERICENTER":"265.6831","CLASSIFICATION_TYPE":"U"},{"SEMIMAJOR_AXIS":"6947.204","OBJECT_NAME":"STARLINK-5030","RA_OF_ASC_NODE":"110.5379","COUNTRY_CODE":"US","ELEMENT_SET_NO":"999","ECCENTRICITY":"0.00028980","INCLINATION":"69.9992","TLE_LINE2":"2 55418  69.9992 110.5379 0002898 265.4983  94.5845 14.99296956 20309","TLE_LINE1":"1 55418U 23014AD  23154.89214090  .00000182  00000-0  22561-4 0  9992","EPOCH":"2023-06-03T21:24:40.973760","PERIAPSIS":"567.056","REV_AT_EPOCH":"2030","SITE":"AFWTR","MEAN_MOTION_DOT":"0.00000182","MEAN_MOTION_DDOT":"0.0000000000000","CENTER_NAME":"EARTH","TIME_SYSTEM":"UTC","LAUNCH_DATE":"2023-01-31","ARG_OF_PERICENTER":"265.4983","CLASSIFICATION_TYPE":"U","MEAN_ELEMENT_THEORY":"SGP4","RCS_SIZE":"LARGE","OBJECT_TYPE":"PAYLOAD","FILE":"3924324","GP_ID":"233147178","PERIOD":"96.045","REF_FRAME":"TEME","DECAY_DATE":null,"MEAN_MOTION":"14.99296956","BSTAR":"0.00002256100000","OBJECT_ID":"2023-014AD","EPHEMERIS_TYPE":"0","NORAD_CAT_ID":"55418","MEAN_ANOMALY":"94.5845","APOAPSIS":"571.083"},{"SEMIMAJOR_AXIS":"6947.199","OBJECT_NAME":"STARLINK-5629","RA_OF_ASC_NODE":"112.0079","REV_AT_EPOCH":"2021","SITE":"AFWTR","MEAN_MOTION_DOT":"-0.00000273","MEAN_MOTION_DDOT":"0.0000000000000","CENTER_NAME":"EARTH","TIME_SYSTEM":"UTC","LAUNCH_DATE":"2023-01-31","COUNTRY_CODE":"US","ELEMENT_SET_NO":"999","ECCENTRICITY":"0.00029980","INCLINATION":"69.9991","TLE_LINE2":"2 55419  69.9991 112.0079 0002998 267.3381  92.7435 14.99298523 20214","TLE_LINE1":"1 55419U 23014AE  23154.27872909 -.00000273  00000-0 -14657-4 0  9994","EPOCH":"2023-06-03T06:41:22.193376","PERIAPSIS":"566.982","MEAN_ELEMENT_THEORY":"SGP4","RCS_SIZE":"LARGE","ARG_OF_PERICENTER":"267.3381","CLASSIFICATION_TYPE":"U","OBJECT_ID":"2023-014AE","BSTAR":"-0.00001465700000","EPHEMERIS_TYPE":"0","NORAD_CAT_ID":"55419","MEAN_ANOMALY":"92.7435","APOAPSIS":"571.147","OBJECT_TYPE":"PAYLOAD","FILE":"3924076","GP_ID":"233112869","REF_FRAME":"TEME","PERIOD":"96.045","MEAN_MOTION":"14.99298523","DECAY_DATE":null},{"SEMIMAJOR_AXIS":"6737.240","OBJECT_NAME":"STARLINK-5604","RA_OF_ASC_NODE":"103.2577","TLE_LINE2":"2 55420  69.9974 103.2577 0003440 260.4590  99.6217 15.69927838 20480","TLE_LINE1":"1 55420U 23014AF  23154.90804345  .00000012  00000-0  18670-5 0  9994","PERIAPSIS":"356.788","EPOCH":"2023-06-03T21:47:34.954080","COUNTRY_CODE":"US","ELEMENT_SET_NO":"999","ECCENTRICITY":"0.00034400","INCLINATION":"69.9974","MEAN_MOTION_DDOT":"0.0000000000000","CENTER_NAME":"EARTH","TIME_SYSTEM":"UTC","LAUNCH_DATE":"2023-01-31","SITE":"AFWTR","REV_AT_EPOCH":"2048","MEAN_MOTION_DOT":"0.00000012","CLASSIFICATION_TYPE":"U","ARG_OF_PERICENTER":"260.4590","RCS_SIZE":"LARGE","MEAN_ELEMENT_THEORY":"SGP4","GP_ID":"233145676","PERIOD":"91.724","REF_FRAME":"TEME","MEAN_MOTION":"15.69927838","DECAY_DATE":null,"FILE":"3924324","OBJECT_TYPE":"PAYLOAD","APOAPSIS":"361.423","OBJECT_ID":"2023-014AF","BSTAR":"0.00000186700000","EPHEMERIS_TYPE":"0","NORAD_CAT_ID":"55420","MEAN_ANOMALY":"99.6217"},{"CLASSIFICATION_TYPE":"U","ARG_OF_PERICENTER":"270.6000","RCS_SIZE":"LARGE","MEAN_ELEMENT_THEORY":"SGP4","MEAN_MOTION":"14.99300717","DECAY_DATE":null,"PERIOD":"96.045","REF_FRAME":"TEME","GP_ID":"233146928","FILE":"3924324","OBJECT_TYPE":"PAYLOAD","APOAPSIS":"571.271","MEAN_ANOMALY":"89.4794","NORAD_CAT_ID":"55421","EPHEMERIS_TYPE":"0","BSTAR":"-0.00001458100000","OBJECT_ID":"2023-014AG","RA_OF_ASC_NODE":"110.5208","OBJECT_NAME":"STARLINK-5598","SEMIMAJOR_AXIS":"6947.193","PERIAPSIS":"566.844","EPOCH":"2023-06-03T21:17:12.202656","TLE_LINE2":"2 55421  69.9989 110.5208 0003186 270.6000  89.4794 14.99300717 20306","TLE_LINE1":"1 55421U 23014AG  23154.88694679 -.00000272  00000-0 -14581-4 0  9995","INCLINATION":"69.9989","ECCENTRICITY":"0.00031860","ELEMENT_SET_NO":"999","COUNTRY_CODE":"US","LAUNCH_DATE":"2023-01-31","TIME_SYSTEM":"UTC","MEAN_MOTION_DDOT":"0.0000000000000","CENTER_NAME":"EARTH","MEAN_MOTION_DOT":"-0.00000272","REV_AT_EPOCH":"2030","SITE":"AFWTR"},{"RA_OF_ASC_NODE":"110.2404","OBJECT_NAME":"STARLINK-5006","SEMIMAJOR_AXIS":"6926.872","INCLINATION":"69.9970","ECCENTRICITY":"0.00045910","ELEMENT_SET_NO":"999","COUNTRY_CODE":"US","PERIAPSIS":"545.556","EPOCH":"2023-06-03T22:05:52.620288","TLE_LINE2":"2 55422  69.9970 110.2404 0004591 210.2059 149.8840 15.05903230 20318","TLE_LINE1":"1 55422U 23014AH  23154.92074792 -.00206154  00000-0 -14554-1 0  9993","MEAN_MOTION_DOT":"-0.00206154","SITE":"AFWTR","REV_AT_EPOCH":"2031","LAUNCH_DATE":"2023-01-31","TIME_SYSTEM":"UTC","MEAN_MOTION_DDOT":"0.0000000000000","CENTER_NAME":"EARTH","ARG_OF_PERICENTER":"210.2059","CLASSIFICATION_TYPE":"U","MEAN_ELEMENT_THEORY":"SGP4","RCS_SIZE":"LARGE","FILE":"3924324","OBJECT_TYPE":"PAYLOAD","DECAY_DATE":null,"MEAN_MOTION":"15.05903230","PERIOD":"95.624","REF_FRAME":"TEME","GP_ID":"233146678","MEAN_ANOMALY":"149.8840","NORAD_CAT_ID":"55422","EPHEMERIS_TYPE":"0","BSTAR":"-0.01455400000000","OBJECT_ID":"2023-014AH","APOAPSIS":"551.917"},{"GP_ID":"233145426","MEAN_MOTION":"14.99299285","DECAY_DATE":null,"PERIOD":"96.045","REF_FRAME":"TEME","FILE":"3924324","OBJECT_TYPE":"PAYLOAD","APOAPSIS":"570.885","EPHEMERIS_TYPE":"0","BSTAR":"0.00001316200000","OBJECT_ID":"2023-014AJ","MEAN_ANOMALY":"88.8301","NORAD_CAT_ID":"55423","CLASSIFICATION_TYPE":"U","ARG_OF_PERICENTER":"271.2558","RCS_SIZE":"LARGE","MEAN_ELEMENT_THEORY":"SGP4","EPOCH":"2023-06-03T21:29:21.562944","PERIAPSIS":"567.239","TLE_LINE1":"1 55423U 23014AJ  23154.89538846  .00000067  00000-0  13162-4 0  9995","TLE_LINE2":"2 55423  69.9989 110.5493 0002624 271.2558  88.8301 14.99299285 20309","ELEMENT_SET_NO":"999","COUNTRY_CODE":"US","INCLINATION":"69.9989","ECCENTRICITY":"0.00026240","CENTER_NAME":"EARTH","MEAN_MOTION_DDOT":"0.0000000000000","LAUNCH_DATE":"2023-01-31","TIME_SYSTEM":"UTC","SITE":"AFWTR","REV_AT_EPOCH":"2030","MEAN_MOTION_DOT":"0.00000067","SEMIMAJOR_AXIS":"6947.197","RA_OF_ASC_NODE":"110.5493","OBJECT_NAME":"STARLINK-5068"}];
